[{"OBJECT_NAME":"ONEWEB-0311","OBJECT_ID":"2021-075Y","EPOCH":"2025-08-16T06:54:42.268608","MEAN_MOTION":13.17649757,"ECCENTRICITY":0.0001908,"INCLINATION":87.9019,"RA_OF_ASC_NODE":66.5286,"ARG_OF_PERICENTER":99.7685,"MEAN_ANOMALY":260.3662,"EPHEMERIS_TYPE":0,"CLASSIFICATION_TYPE":"U","NORAD_CAT_ID":49097,"ELEMENT_SET_NO":999,"REV_AT_EPOCH":19447,"BSTAR":-5.3024e-5,"MEAN_MOTION_DOT":-8.0e-8,"MEAN_MOTION_DDOT":0},{"OBJECT_NAME":"ONEWEB-0312","OBJECT_ID":"2021-075Z","EPOCH":"2025-08-15T22:09:50.120928","MEAN_MOTION":13.17650631,"ECCENTRICITY":0.0001546,"INCLINATION":87.9022,"RA_OF_ASC_NODE":66.633,"ARG_OF_PERICENTER":98.1487,"MEAN_ANOMALY":261.982,"EPHEMERIS_TYPE":0,"CLASSIFICATION_TYPE":"U","NORAD_CAT_ID":49098,"ELEMENT_SET_NO":999,"REV_AT_EPOCH":19340,"BSTAR":0.00016475,"MEAN_MOTION_DOT":7.7e-7,"MEAN_MOTION_DDOT":0},{"OBJECT_NAME":"ONEWEB-0313","OBJECT_ID":"2021-075AA","EPOCH":"2025-08-15T22:16:55.619328","MEAN_MOTION":13.17637731,"ECCENTRICITY":0.0001792,"INCLINATION":87.9018,"RA_OF_ASC_NODE":66.6457,"ARG_OF_PERICENTER":91.4018,"MEAN_ANOMALY":268.7319,"EPHEMERIS_TYPE":0,"CLASSIFICATION_TYPE":"U","NORAD_CAT_ID":49099,"ELEMENT_SET_NO":999,"REV_AT_EPOCH":19339,"BSTAR":-0.0013747,"MEAN_MOTION_DOT":-5.21e-6,"MEAN_MOTION_DDOT":0},{"OBJECT_NAME":"ONEWEB-0314","OBJECT_ID":"2021-075AB","EPOCH":"2025-08-15T19:39:11.118816","MEAN_MOTION":13.1765021,"ECCENTRICITY":0.0001571,"INCLINATION":87.9027,"RA_OF_ASC_NODE":66.6022,"ARG_OF_PERICENTER":98.9522,"MEAN_ANOMALY":261.1788,"EPHEMERIS_TYPE":0,"CLASSIFICATION_TYPE":"U","NORAD_CAT_ID":49100,"ELEMENT_SET_NO":999,"REV_AT_EPOCH":19335,"BSTAR":-1.2026e-5,"MEAN_MOTION_DOT":8.0e-8,"MEAN_MOTION_DDOT":0},{"OBJECT_NAME":"ONEWEB-0315","OBJECT_ID":"2021-075AC","EPOCH":"2025-08-15T21:06:32.298336","MEAN_MOTION":13.12444818,"ECCENTRICITY":0.0002023,"INCLINATION":87.8854,"RA_OF_ASC_NODE":51.3247,"ARG_OF_PERICENTER":98.9035,"MEAN_ANOMALY":261.2322,"EPHEMERIS_TYPE":0,"CLASSIFICATION_TYPE":"U","NORAD_CAT_ID":49101,"ELEMENT_SET_NO":999,"REV_AT_EPOCH":19512,"BSTAR":0.0014049,"MEAN_MOTION_DOT":5.18e-6,"MEAN_MOTION_DDOT":0},{"OBJECT_NAME":"ONEWEB-0316","OBJECT_ID":"2021-075AD","EPOCH":"2025-08-16T10:31:55.740576","MEAN_MOTION":13.18686739,"ECCENTRICITY":0.0001989,"INCLINATION":87.914,"RA_OF_ASC_NODE":35.9927,"ARG_OF_PERICENTER":96.73,"MEAN_ANOMALY":263.4058,"EPHEMERIS_TYPE":0,"CLASSIFICATION_TYPE":"U","NORAD_CAT_ID":49102,"ELEMENT_SET_NO":999,"REV_AT_EPOCH":19805,"BSTAR":2.7176e-5,"MEAN_MOTION_DOT":2.4e-7,"MEAN_MOTION_DDOT":0},{"OBJECT_NAME":"ONEWEB-0317","OBJECT_ID":"2021-075AE","EPOCH":"2025-08-15T20:57:12.748608","MEAN_MOTION":13.12442773,"ECCENTRICITY":0.0001294,"INCLINATION":87.8853,"RA_OF_ASC_NODE":51.3405,"ARG_OF_PERICENTER":64.4258,"MEAN_ANOMALY":295.7004,"EPHEMERIS_TYPE":0,"CLASSIFICATION_TYPE":"U","NORAD_CAT_ID":49103,"ELEMENT_SET_NO":999,"REV_AT_EPOCH":19514,"BSTAR":0.00077266,"MEAN_MOTION_DOT":2.91e-6,"MEAN_MOTION_DDOT":0},{"OBJECT_NAME":"ONEWEB-0318","OBJECT_ID":"2021-075AF","EPOCH":"2025-08-15T21:42:19.961280","MEAN_MOTION":13.18686842,"ECCENTRICITY":0.0001977,"INCLINATION":87.914,"RA_OF_ASC_NODE":36.0853,"ARG_OF_PERICENTER":98.207,"MEAN_ANOMALY":261.9287,"EPHEMERIS_TYPE":0,"CLASSIFICATION_TYPE":"U","NORAD_CAT_ID":49104,"ELEMENT_SET_NO":999,"REV_AT_EPOCH":19693,"BSTAR":4.821e-5,"MEAN_MOTION_DOT":3.2e-7,"MEAN_MOTION_DDOT":0},{"OBJECT_NAME":"ONEWEB-0319","OBJECT_ID":"2021-075AG","EPOCH":"2025-08-16T10:35:48.824448","MEAN_MOTION":13.17650639,"ECCENTRICITY":0.0001929,"INCLINATION":87.9022,"RA_OF_ASC_NODE":66.5229,"ARG_OF_PERICENTER":100.5584,"MEAN_ANOMALY":259.5765,"EPHEMERIS_TYPE":0,"CLASSIFICATION_TYPE":"U","NORAD_CAT_ID":49105,"ELEMENT_SET_NO":999,"REV_AT_EPOCH":19446,"BSTAR":0.00011751,"MEAN_MOTION_DOT":5.9e-7,"MEAN_MOTION_DDOT":0},{"OBJECT_NAME":"ONEWEB-0323","OBJECT_ID":"2021-075AH","EPOCH":"2025-08-16T05:52:05.664000","MEAN_MOTION":13.12444206,"ECCENTRICITY":0.0002028,"INCLINATION":87.8856,"RA_OF_ASC_NODE":51.2522,"ARG_OF_PERICENTER":111.2321,"MEAN_ANOMALY":248.9024,"EPHEMERIS_TYPE":0,"CLASSIFICATION_TYPE":"U","NORAD_CAT_ID":49106,"ELEMENT_SET_NO":999,"REV_AT_EPOCH":19555,"BSTAR":-0.00050266,"MEAN_MOTION_DOT":-1.68e-6,"MEAN_MOTION_DDOT":0},{"OBJECT_NAME":"ONEWEB-0329","OBJECT_ID":"2021-075AJ","EPOCH":"2025-08-16T07:09:17.625888","MEAN_MOTION":13.17648241,"ECCENTRICITY":0.0001758,"INCLINATION":87.9021,"RA_OF_ASC_NODE":66.5559,"ARG_OF_PERICENTER":95.6075,"MEAN_ANOMALY":264.5257,"EPHEMERIS_TYPE":0,"CLASSIFICATION_TYPE":"U","NORAD_CAT_ID":49107,"ELEMENT_SET_NO":999,"REV_AT_EPOCH":19442,"BSTAR":-3.0312e-5,"MEAN_MOTION_DOT":1.0e-8,"MEAN_MOTION_DDOT":0},{"OBJECT_NAME":"ONEWEB-0330","OBJECT_ID":"2021-075AK","EPOCH":"2025-08-15T22:03:47.320416","MEAN_MOTION":13.17650279,"ECCENTRICITY":0.0001507,"INCLINATION":87.9025,"RA_OF_ASC_NODE":66.6343,"ARG_OF_PERICENTER":90.0821,"MEAN_ANOMALY":270.0484,"EPHEMERIS_TYPE":0,"CLASSIFICATION_TYPE":"U","NORAD_CAT_ID":49108,"ELEMENT_SET_NO":999,"REV_AT_EPOCH":19342,"BSTAR":-0.00020555,"MEAN_MOTION_DOT":-6.7e-7,"MEAN_MOTION_DDOT":0},{"OBJECT_NAME":"ONEWEB-0292","OBJECT_ID":"2021-083A","EPOCH":"2025-08-15T22:07:34.408992","MEAN_MOTION":13.1346879,"ECCENTRICITY":0.0001889,"INCLINATION":87.899,"RA_OF_ASC_NODE":20.9073,"ARG_OF_PERICENTER":99.2379,"MEAN_ANOMALY":260.8964,"EPHEMERIS_TYPE":0,"CLASSIFICATION_TYPE":"U","NORAD_CAT_ID":49186,"ELEMENT_SET_NO":999,"REV_AT_EPOCH":19085,"BSTAR":-0.0005022,"MEAN_MOTION_DOT":-1.71e-6,"MEAN_MOTION_DDOT":0},{"OBJECT_NAME":"ONEWEB-0303","OBJECT_ID":"2021-083B","EPOCH":"2025-08-15T21:37:35.719968","MEAN_MOTION":13.18685009,"ECCENTRICITY":0.0001915,"INCLINATION":87.9139,"RA_OF_ASC_NODE":36.0866,"ARG_OF_PERICENTER":97.2595,"MEAN_ANOMALY":262.8755,"EPHEMERIS_TYPE":0,"CLASSIFICATION_TYPE":"U","NORAD_CAT_ID":49187,"ELEMENT_SET_NO":999,"REV_AT_EPOCH":18974,"BSTAR":-3.7945e-6,"MEAN_MOTION_DOT":1.1e-7,"MEAN_MOTION_DDOT":0},{"OBJECT_NAME":"ONEWEB-0306","OBJECT_ID":"2021-083C","EPOCH":"2025-08-15T21:23:20.661504","MEAN_MOTION":13.18685325,"ECCENTRICITY":0.0001712,"INCLINATION":87.914,"RA_OF_ASC_NODE":36.0739,"ARG_OF_PERICENTER":85.2721,"MEAN_ANOMALY":274.8607,"EPHEMERIS_TYPE":0,"CLASSIFICATION_TYPE":"U","NORAD_CAT_ID":49188,"ELEMENT_SET_NO":999,"REV_AT_EPOCH":18978,"BSTAR":0.00014429,"MEAN_MOTION_DOT":7.0e-7,"MEAN_MOTION_DDOT":0},{"OBJECT_NAME":"ONEWEB-0307","OBJECT_ID":"2021-083D","EPOCH":"2025-08-16T08:57:13.977216","MEAN_MOTION":13.13470926,"ECCENTRICITY":0.000146,"INCLINATION":87.8978,"RA_OF_ASC_NODE":20.8183,"ARG_OF_PERICENTER":92.5355,"MEAN_ANOMALY":267.5941,"EPHEMERIS_TYPE":0,"CLASSIFICATION_TYPE":"U","NORAD_CAT_ID":49189,"ELEMENT_SET_NO":999,"REV_AT_EPOCH":19220,"BSTAR":-0.00077984,"MEAN_MOTION_DOT":-2.72e-6,"MEAN_MOTION_DDOT":0},{"OBJECT_NAME":"ONEWEB-0320","OBJECT_ID":"2021-083E","EPOCH":"2025-08-15T21:32:49.553664","MEAN_MOTION":13.18686747,"ECCENTRICITY":0.0001801,"INCLINATION":87.9139,"RA_OF_ASC_NODE":36.1012,"ARG_OF_PERICENTER":92.8645,"MEAN_ANOMALY":267.2693,"EPHEMERIS_TYPE":0,"CLASSIFICATION_TYPE":"U","NORAD_CAT_ID":49190,"ELEMENT_SET_NO":999,"REV_AT_EPOCH":18974,"BSTAR":4.301e-5,"MEAN_MOTION_DOT":3.0e-7,"MEAN_MOTION_DDOT":0}]
