ONEWEB-0311             
1 49097U 21075Y   25228.28798922 -.00000008  00000+0 -53024-4 0  9997
2 49097  87.9019  66.5286 0001908  99.7685 260.3662 13.17649757194470
ONEWEB-0312             
1 49098U 21075Z   25227.92349677  .00000077  00000+0  16475-3 0  9999
2 49098  87.9022  66.6330 0001546  98.1487 261.9820 13.17650631193405
ONEWEB-0313             
1 49099U 21075AA  25227.92842152 -.00000521  00000+0 -13747-2 0  9990
2 49099  87.9018  66.6457 0001792  91.4018 268.7319 13.17637731193392
ONEWEB-0314             
1 49100U 21075AB  25227.81887869  .00000008  00000+0 -12026-4 0  9995
2 49100  87.9027  66.6022 0001571  98.9522 261.1788 13.17650210193350
ONEWEB-0315             
1 49101U 21075AC  25227.87954049  .00000518  00000+0  14049-2 0  9997
2 49101  87.8854  51.3247 0002023  98.9035 261.2322 13.12444818195122
ONEWEB-0316             
1 49102U 21075AD  25228.43883959  .00000024  00000+0  27176-4 0  9991
2 49102  87.9140  35.9927 0001989  96.7300 263.4058 13.18686739198057
ONEWEB-0317             
1 49103U 21075AE  25227.87306422  .00000291  00000+0  77266-3 0  9994
2 49103  87.8853  51.3405 0001294  64.4258 295.7004 13.12442773195142
ONEWEB-0318             
1 49104U 21075AF  25227.90439770  .00000032  00000+0  48210-4 0  9993
2 49104  87.9140  36.0853 0001977  98.2070 261.9287 13.18686842196934
ONEWEB-0319             
1 49105U 21075AG  25228.44153732  .00000059  00000+0  11751-3 0  9993
2 49105  87.9022  66.5229 0001929 100.5584 259.5765 13.17650639194467
ONEWEB-0323             
1 49106U 21075AH  25228.24451000 -.00000168  00000+0 -50266-3 0  9998
2 49106  87.8856  51.2522 0002028 111.2321 248.9024 13.12444206195555
ONEWEB-0329             
1 49107U 21075AJ  25228.29812067  .00000001  00000+0 -30312-4 0  9994
2 49107  87.9021  66.5559 0001758  95.6075 264.5257 13.17648241194427
ONEWEB-0330             
1 49108U 21075AK  25227.91929769 -.00000067  00000+0 -20555-3 0  9991
2 49108  87.9025  66.6343 0001507  90.0821 270.0484 13.17650279193421
ONEWEB-0292             
1 49186U 21083A   25227.92192603 -.00000171  00000+0 -50220-3 0  9994
2 49186  87.8990  20.9073 0001889  99.2379 260.8964 13.13468790190857
ONEWEB-0303             
1 49187U 21083B   25227.90110787  .00000011  00000+0 -37945-5 0  9999
2 49187  87.9139  36.0866 0001915  97.2595 262.8755 13.18685009189745
ONEWEB-0306             
1 49188U 21083C   25227.89121136  .00000070  00000+0  14429-3 0  9992
2 49188  87.9140  36.0739 0001712  85.2721 274.8607 13.18685325189784
ONEWEB-0307             
1 49189U 21083D   25228.37307844 -.00000272  00000+0 -77984-3 0  9990
2 49189  87.8978  20.8183 0001460  92.5355 267.5941 13.13470926192206
ONEWEB-0320             
1 49190U 21083E   25227.89779576  .00000030  00000+0  43010-4 0  9997
2 49190  87.9139  36.1012 0001801  92.8645 267.2693 13.18686747189744
